{"type": "FeatureCollection", "features": [ {"type": "Feature", "properties": {"norad_id": 36550, "name": "COSMOS 2251 DEB", "group": "cosmos-2251-debris", "lat": -34.81473511420987, "lon": 163.84062278397198, "alt_km": 816.0982200567178, "timestamp": "2025-12-22T08:58:20.760120+00:00", "meta": {"OBJECT_NAME": "COSMOS 2251 DEB", "OBJECT_ID": "1993-036BDL", "EPOCH": "2025-12-18T21:01:50.103840", "MEAN_MOTION": 14.27217133, "ECCENTRICITY": 0.00780997, "INCLINATION": 74.0439, "RA_OF_ASC_NODE": 181.6412, "ARG_OF_PERICENTER": 230.9486, "MEAN_ANOMALY": 128.4696, "EPHEMERIS_TYPE": 0, "CLASSIFICATION_TYPE": "U", "NORAD_CAT_ID": 36550, "ELEMENT_SET_NO": 999, "REV_AT_EPOCH": 84683, "BSTAR": 0.00048644345, "MEAN_MOTION_DOT": 1.202e-05, "MEAN_MOTION_DDOT": 0}, "tle": {"line1": "1 36550U 93036BDL 25352.87627435  .00001202  00000+0  48644-3 0  9992", "line2": "2 36550  74.0439 181.6412 0078099 230.9486 128.4696 14.27217133846832"}}, "geometry": {"type": "Point", "coordinates": [163.84062278397198, -34.81473511420987]}}, {"type": "Feature", "properties": {"norad_id": 36551, "name": "COSMOS 2251 DEB", "group": "cosmos-2251-debris", "lat": 60.05867402562361, "lon": 144.73503185024663, "alt_km": 587.1878468740706, "timestamp": "2025-12-22T08:58:20.760130+00:00", "meta": {"OBJECT_NAME": "COSMOS 2251 DEB", "OBJECT_ID": "1993-036BDM", "EPOCH": "2025-12-20T18:06:50.617728", "MEAN_MOTION": 15.02792529, "ECCENTRICITY": 0.00510944, "INCLINATION": 73.8867, "RA_OF_ASC_NODE": 358.1943, "ARG_OF_PERICENTER": 305.9203, "MEAN_ANOMALY": 53.7248, "EPHEMERIS_TYPE": 0, "CLASSIFICATION_TYPE": "U", "NORAD_CAT_ID": 36551, "ELEMENT_SET_NO": 999, "REV_AT_EPOCH": 67052, "BSTAR": 0.00081561541, "MEAN_MOTION_DOT": 0.00011204, "MEAN_MOTION_DDOT": 0}, "tle": {"line1": "1 36551U 93036BDM 25354.75475252  .00011204  00000+0  81562-3 0  9999", "line2": "2 36551  73.8867 358.1943 0051094 305.9203  53.7248 15.02792529670526"}}, "geometry": {"type": "Point", "coordinates": [144.73503185024663, 60.05867402562361]}}, {"type": "Feature", "properties": {"norad_id": 36557, "name": "COSMOS 2251 DEB", "group": "cosmos-2251-debris", "lat": -20.996908796294647, "lon": 100.92387670241743, "alt_km": 635.4055204000924, "timestamp": "2025-12-22T08:58:20.760141+00:00", "meta": {"OBJECT_NAME": "COSMOS 2251 DEB", "OBJECT_ID": "1993-036BDT", "EPOCH": "2025-12-22T00:57:08.479008", "MEAN_MOTION": 14.78653832, "ECCENTRICITY": 0.00212, "INCLINATION": 73.9802, "RA_OF_ASC_NODE": 107.9136, "ARG_OF_PERICENTER": 260.6795, "MEAN_ANOMALY": 99.1983, "EPHEMERIS_TYPE": 0, "CLASSIFICATION_TYPE": "U", "NORAD_CAT_ID": 36557, "ELEMENT_SET_NO": 999, "REV_AT_EPOCH": 34034, "BSTAR": 0.0038224, "MEAN_MOTION_DOT": 0.00028203, "MEAN_MOTION_DDOT": 0}, "tle": {"line1": "1 36557U 93036BDT 25356.03968147  .00028203  00000+0  38224-2 0  9991", "line2": "2 36557  73.9802 107.9136 0021200 260.6795  99.1983 14.78653832340344"}}, "geometry": {"type": "Point", "coordinates": [100.92387670241743, -20.996908796294647]}}, {"type": "Feature", "properties": {"norad_id": 36558, "name": "COSMOS 2251 DEB", "group": "cosmos-2251-debris", "lat": -16.38041020975205, "lon": -38.872329459708666, "alt_km": 704.5640939876866, "timestamp": "2025-12-22T08:58:20.760151+00:00", "meta": {"OBJECT_NAME": "COSMOS 2251 DEB", "OBJECT_ID": "1993-036BDU", "EPOCH": "2025-12-21T08:58:26.792544", "MEAN_MOTION": 14.55416575, "ECCENTRICITY": 0.00126133, "INCLINATION": 74.0422, "RA_OF_ASC_NODE": 138.1955, "ARG_OF_PERICENTER": 226.6468, "MEAN_ANOMALY": 133.3645, "EPHEMERIS_TYPE": 0, "CLASSIFICATION_TYPE": "U", "NORAD_CAT_ID": 36558, "ELEMENT_SET_NO": 999, "REV_AT_EPOCH": 85394, "BSTAR": 0.00068051983, "MEAN_MOTION_DOT": 2.933e-05, "MEAN_MOTION_DDOT": 0}, "tle": {"line1": "1 36558U 93036BDU 25355.37392121  .00002933  00000+0  68052-3 0  9996", "line2": "2 36558  74.0422 138.1955 0012613 226.6468 133.3645 14.55416575853944"}}, "geometry": {"type": "Point", "coordinates": [-38.872329459708666, -16.38041020975205]}}, {"type": "Feature", "properties": {"norad_id": 36559, "name": "COSMOS 2251 DEB", "group": "cosmos-2251-debris", "lat": 65.33781345769889, "lon": 135.07544069096198, "alt_km": 883.6506830050348, "timestamp": "2025-12-22T08:58:20.760161+00:00", "meta": {"OBJECT_NAME": "COSMOS 2251 DEB", "OBJECT_ID": "1993-036BDV", "EPOCH": "2025-12-16T01:02:38.774976", "MEAN_MOTION": 13.95226172, "ECCENTRICITY": 0.0260446, "INCLINATION": 74.1323, "RA_OF_ASC_NODE": 4.1653, "ARG_OF_PERICENTER": 36.0043, "MEAN_ANOMALY": 325.8321, "EPHEMERIS_TYPE": 0, "CLASSIFICATION_TYPE": "U", "NORAD_CAT_ID": 36559, "ELEMENT_SET_NO": 999, "REV_AT_EPOCH": 81140, "BSTAR": 0.0020581095, "MEAN_MOTION_DOT": 3.672e-05, "MEAN_MOTION_DDOT": 0}, "tle": {"line1": "1 36559U 93036BDV 25350.04350434  .00003672  00000+0  20581-2 0  9992", "line2": "2 36559  74.1323   4.1653 0260446  36.0043 325.8321 13.95226172811403"}}, "geometry": {"type": "Point", "coordinates": [135.07544069096198, 65.33781345769889]}}, {"type": "Feature", "properties": {"norad_id": 36614, "name": "COSMOS 2251 DEB", "group": "cosmos-2251-debris", "lat": 23.565475058716217, "lon": 163.35722189791383, "alt_km": 701.5919411096847, "timestamp": "2025-12-22T08:58:20.760171+00:00", "meta": {"OBJECT_NAME": "COSMOS 2251 DEB", "OBJECT_ID": "1993-036BEC", "EPOCH": "2025-12-20T17:24:05.102784", "MEAN_MOTION": 14.60353691, "ECCENTRICITY": 0.0015826, "INCLINATION": 74.0208, "RA_OF_ASC_NODE": 159.3271, "ARG_OF_PERICENTER": 229.1193, "MEAN_ANOMALY": 130.8602, "EPHEMERIS_TYPE": 0, "CLASSIFICATION_TYPE": "U", "NORAD_CAT_ID": 36614, "ELEMENT_SET_NO": 999, "REV_AT_EPOCH": 65729, "BSTAR": 0.00087623932, "MEAN_MOTION_DOT": 4.218e-05, "MEAN_MOTION_DDOT": 0}, "tle": {"line1": "1 36614U 93036BEC 25354.72505906  .00004218  00000+0  87624-3 0  9998", "line2": "2 36614  74.0208 159.3271 0015826 229.1193 130.8602 14.60353691657297"}}, "geometry": {"type": "Point", "coordinates": [163.35722189791383, 23.565475058716217]}}, {"type": "Feature", "properties": {"norad_id": 36622, "name": "COSMOS 2251 DEB", "group": "cosmos-2251-debris", "lat": -70.64839776632415, "lon": 71.8754311226923, "alt_km": 602.9094474936501, "timestamp": "2025-12-22T08:58:20.760181+00:00", "meta": {"OBJECT_NAME": "COSMOS 2251 DEB", "OBJECT_ID": "1993-036BEL", "EPOCH": "2025-12-21T02:25:32.891232", "MEAN_MOTION": 14.76266082, "ECCENTRICITY": 0.00688173, "INCLINATION": 74.0142, "RA_OF_ASC_NODE": 129.0805, "ARG_OF_PERICENTER": 262.8361, "MEAN_ANOMALY": 96.4986, "EPHEMERIS_TYPE": 0, "CLASSIFICATION_TYPE": "U", "NORAD_CAT_ID": 36622, "ELEMENT_SET_NO": 999, "REV_AT_EPOCH": 66873, "BSTAR": 0.00047291179, "MEAN_MOTION_DOT": 3.371e-05, "MEAN_MOTION_DDOT": 0}, "tle": {"line1": "1 36622U 93036BEL 25355.10107513  .00003371  00000+0  47291-3 0  9997", "line2": "2 36622  74.0142 129.0805 0068817 262.8361  96.4986 14.76266082668736"}}, "geometry": {"type": "Point", "coordinates": [71.8754311226923, -70.64839776632415]}}, {"type": "Feature", "properties": {"norad_id": 36632, "name": "COSMOS 2251 DEB", "group": "cosmos-2251-debris", "lat": 17.157289072747528, "lon": -80.48008314380228, "alt_km": 724.7790290513785, "timestamp": "2025-12-22T08:58:20.760191+00:00", "meta": {"OBJECT_NAME": "COSMOS 2251 DEB", "OBJECT_ID": "1993-036BEW", "EPOCH": "2025-12-21T01:16:53.891328", "MEAN_MOTION": 14.43214407, "ECCENTRICITY": 0.00326378, "INCLINATION": 74.0029, "RA_OF_ASC_NODE": 276.8952, "ARG_OF_PERICENTER": 22.7567, "MEAN_ANOMALY": 337.5028, "EPHEMERIS_TYPE": 0, "CLASSIFICATION_TYPE": "U", "NORAD_CAT_ID": 36632, "ELEMENT_SET_NO": 999, "REV_AT_EPOCH": 65335, "BSTAR": 0.00052346951, "MEAN_MOTION_DOT": 1.745e-05, "MEAN_MOTION_DDOT": 0}, "tle": {"line1": "1 36632U 93036BEW 25355.05340152  .00001745  00000+0  52347-3 0  9991", "line2": "2 36632  74.0029 276.8952 0032637  22.7567 337.5028 14.43214407653353"}}, "geometry": {"type": "Point", "coordinates": [-80.48008314380228, 17.157289072747528]}}, {"type": "Feature", "properties": {"norad_id": 37084, "name": "COSMOS 2251 DEB", "group": "cosmos-2251-debris", "lat": -42.267354911034076, "lon": -23.087504886128208, "alt_km": 502.5339359036343, "timestamp": "2025-12-22T08:58:20.760202+00:00", "meta": {"OBJECT_NAME": "COSMOS 2251 DEB", "OBJECT_ID": "1993-036BFE", "EPOCH": "2025-12-22T03:10:30.254304", "MEAN_MOTION": 15.01128486, "ECCENTRICITY": 0.0096992, "INCLINATION": 74.0267, "RA_OF_ASC_NODE": 142.3142, "ARG_OF_PERICENTER": 220.639, "MEAN_ANOMALY": 138.7532, "EPHEMERIS_TYPE": 0, "CLASSIFICATION_TYPE": "U", "NORAD_CAT_ID": 37084, "ELEMENT_SET_NO": 999, "REV_AT_EPOCH": 66408, "BSTAR": 0.00069725, "MEAN_MOTION_DOT": 9.848e-05, "MEAN_MOTION_DDOT": 0}, "tle": {"line1": "1 37084U 93036BFE 25356.13229461  .00009848  00000+0  69725-3 0  9992", "line2": "2 37084  74.0267 142.3142 0096992 220.6390 138.7532 15.01128486664083"}}, "geometry": {"type": "Point", "coordinates": [-23.087504886128208, -42.267354911034076]}}, {"type": "Feature", "properties": {"norad_id": 37085, "name": "COSMOS 2251 DEB", "group": "cosmos-2251-debris", "lat": -73.86694455202705, "lon": 110.52832832550486, "alt_km": 449.21412030834017, "timestamp": "2025-12-22T08:58:20.760212+00:00", "meta": {"OBJECT_NAME": "COSMOS 2251 DEB", "OBJECT_ID": "1993-036BFF", "EPOCH": "2025-12-13T09:00:31.802112", "MEAN_MOTION": 15.41681601, "ECCENTRICITY": 0.00213151, "INCLINATION": 73.9479, "RA_OF_ASC_NODE": 214.6598, "ARG_OF_PERICENTER": 52.8263, "MEAN_ANOMALY": 307.4887, "EPHEMERIS_TYPE": 0, "CLASSIFICATION_TYPE": "U", "NORAD_CAT_ID": 37085, "ELEMENT_SET_NO": 999, "REV_AT_EPOCH": 67147, "BSTAR": 0.0024657072, "MEAN_MOTION_DOT": 0.00106285, "MEAN_MOTION_DDOT": 0}, "tle": {"line1": "1 37085U 93036BFF 25347.37536808  .00106285  00000+0  24657-2 0  9992", "line2": "2 37085  73.9479 214.6598 0021315  52.8263 307.4887 15.41681601671472"}}, "geometry": {"type": "Point", "coordinates": [110.52832832550486, -73.86694455202705]}}]}